{
 "generated_at": "2026-06-26T08:30:21Z",
 "sources": [
  {
   "name": "CelesTrak",
   "url": "https://celestrak.org/NORAD/elements/",
   "license": "frei verfügbar; Attribution. Ursprünglich USSPACECOM/Space-Track."
  },
  {
   "name": "GCAT (J. McDowell, planet4589.org)",
   "url": "https://planet4589.org/space/gcat/",
   "license": "CC-BY 4.0"
  }
 ],
 "satellites": [
  {
   "norad": 68996,
   "name": "ICEYE-X82",
   "intl": "2026-100S",
   "group": "sar",
   "gcat": {
    "class": "B",
    "category": "IMG-R",
    "owner": "ICEYE",
    "state": "FI"
   },
   "omm": {
    "OBJECT_NAME": "ICEYE-X82",
    "OBJECT_ID": "2026-100S",
    "EPOCH": "2026-06-25T16:15:58.934880",
    "MEAN_MOTION": 14.91339661,
    "ECCENTRICITY": 0.0005724,
    "INCLINATION": 97.7358,
    "RA_OF_ASC_NODE": 73.9345,
    "ARG_OF_PERICENTER": 110.1215,
    "MEAN_ANOMALY": 250.062,
    "EPHEMERIS_TYPE": 0,
    "CLASSIFICATION_TYPE": "U",
    "NORAD_CAT_ID": 68996,
    "ELEMENT_SET_NO": 999,
    "REV_AT_EPOCH": 796,
    "BSTAR": 0.00028884,
    "MEAN_MOTION_DOT": 0.00002825,
    "MEAN_MOTION_DDOT": 0
   }
  },
  {
   "norad": 39216,
   "name": "INSAT-3D",
   "intl": "2013-038B",
   "group": "weather",
   "gcat": {
    "class": "C",
    "category": "MET",
    "owner": "ISRO",
    "state": "IN"
   },
   "omm": {
    "OBJECT_NAME": "INSAT-3D",
    "OBJECT_ID": "2013-038B",
    "EPOCH": "2026-06-25T23:28:56.536032",
    "MEAN_MOTION": 1.0027222,
    "ECCENTRICITY": 0.0001129,
    "INCLINATION": 1.9489,
    "RA_OF_ASC_NODE": 82.4409,
    "ARG_OF_PERICENTER": 0.0611,
    "MEAN_ANOMALY": 313.3627,
    "EPHEMERIS_TYPE": 0,
    "CLASSIFICATION_TYPE": "U",
    "NORAD_CAT_ID": 39216,
    "ELEMENT_SET_NO": 999,
    "REV_AT_EPOCH": 4716,
    "BSTAR": 0,
    "MEAN_MOTION_DOT": -0.0000033,
    "MEAN_MOTION_DDOT": 0
   }
  },
  {
   "norad": 41752,
   "name": "INSAT-3DR",
   "intl": "2016-054A",
   "group": "weather",
   "gcat": {
    "class": "C",
    "category": "MET",
    "owner": "ISRO",
    "state": "IN"
   },
   "omm": {
    "OBJECT_NAME": "INSAT-3DR",
    "OBJECT_ID": "2016-054A",
    "EPOCH": "2026-06-26T02:38:20.754816",
    "MEAN_MOTION": 1.0027238,
    "ECCENTRICITY": 0.0010079,
    "INCLINATION": 0.1285,
    "RA_OF_ASC_NODE": 86.2314,
    "ARG_OF_PERICENTER": 187.0454,
    "MEAN_ANOMALY": 114.5183,
    "EPHEMERIS_TYPE": 0,
    "CLASSIFICATION_TYPE": "U",
    "NORAD_CAT_ID": 41752,
    "ELEMENT_SET_NO": 999,
    "REV_AT_EPOCH": 3590,
    "BSTAR": 0,
    "MEAN_MOTION_DOT": -6.6e-7,
    "MEAN_MOTION_DDOT": 0
   }
  },
  {
   "norad": 58990,
   "name": "INSAT-3DS",
   "intl": "2024-033A",
   "group": "weather",
   "gcat": {
    "class": "C",
    "category": "MET",
    "owner": "ISRO",
    "state": "IN"
   },
   "omm": {
    "OBJECT_NAME": "INSAT-3DS",
    "OBJECT_ID": "2024-033A",
    "EPOCH": "2026-06-26T02:40:43.027968",
    "MEAN_MOTION": 1.0027075,
    "ECCENTRICITY": 0.0001449,
    "INCLINATION": 0.0597,
    "RA_OF_ASC_NODE": 101.6372,
    "ARG_OF_PERICENTER": 343.2032,
    "MEAN_ANOMALY": 311.6553,
    "EPHEMERIS_TYPE": 0,
    "CLASSIFICATION_TYPE": "U",
    "NORAD_CAT_ID": 58990,
    "ELEMENT_SET_NO": 999,
    "REV_AT_EPOCH": 4715,
    "BSTAR": 0,
    "MEAN_MOTION_DOT": -0.00000145,
    "MEAN_MOTION_DDOT": 0
   }
  },
  {
   "norad": 61735,
   "name": "IONOSFERA-M 1",
   "intl": "2024-199A",
   "group": "resource",
   "gcat": {
    "class": "C",
    "category": "SCI",
    "owner": "VNIIEMI",
    "state": "RU"
   },
   "omm": {
    "OBJECT_NAME": "IONOSFERA-M 1",
    "OBJECT_ID": "2024-199A",
    "EPOCH": "2026-06-26T04:41:31.727904",
    "MEAN_MOTION": 14.22755898,
    "ECCENTRICITY": 0.0002152,
    "INCLINATION": 98.7164,
    "RA_OF_ASC_NODE": 50.2722,
    "ARG_OF_PERICENTER": 98.4867,
    "MEAN_ANOMALY": 261.6555,
    "EPHEMERIS_TYPE": 0,
    "CLASSIFICATION_TYPE": "U",
    "NORAD_CAT_ID": 61735,
    "ELEMENT_SET_NO": 999,
    "REV_AT_EPOCH": 12898,
    "BSTAR": 0.000044388,
    "MEAN_MOTION_DOT": 5.6e-7,
    "MEAN_MOTION_DDOT": 0
   }
  },
  {
   "norad": 61736,
   "name": "IONOSFERA-M 2",
   "intl": "2024-199B",
   "group": "resource",
   "gcat": {
    "class": "C",
    "category": "SCI",
    "owner": "VNIIEMI",
    "state": "RU"
   },
   "omm": {
    "OBJECT_NAME": "IONOSFERA-M 2",
    "OBJECT_ID": "2024-199B",
    "EPOCH": "2026-06-26T03:49:36.803136",
    "MEAN_MOTION": 14.22759114,
    "ECCENTRICITY": 0.0000659,
    "INCLINATION": 98.7163,
    "RA_OF_ASC_NODE": 50.1471,
    "ARG_OF_PERICENTER": 39.1292,
    "MEAN_ANOMALY": 320.9934,
    "EPHEMERIS_TYPE": 0,
    "CLASSIFICATION_TYPE": "U",
    "NORAD_CAT_ID": 61736,
    "ELEMENT_SET_NO": 999,
    "REV_AT_EPOCH": 13210,
    "BSTAR": 0.000044418,
    "MEAN_MOTION_DOT": 5.6e-7,
    "MEAN_MOTION_DDOT": 0
   }
  },
  {
   "norad": 64876,
   "name": "IONOSFERA-M 3",
   "intl": "2025-155A",
   "group": "resource",
   "gcat": {
    "class": "C",
    "category": "SCI",
    "owner": "VNIIEMI",
    "state": "RU"
   },
   "omm": {
    "OBJECT_NAME": "IONOSFERA-M 3",
    "OBJECT_ID": "2025-155A",
    "EPOCH": "2026-06-26T04:26:40.130016",
    "MEAN_MOTION": 14.21487896,
    "ECCENTRICITY": 0.0001535,
    "INCLINATION": 98.6027,
    "RA_OF_ASC_NODE": 138.8638,
    "ARG_OF_PERICENTER": 141.7385,
    "MEAN_ANOMALY": 218.3902,
    "EPHEMERIS_TYPE": 0,
    "CLASSIFICATION_TYPE": "U",
    "NORAD_CAT_ID": 64876,
    "ELEMENT_SET_NO": 999,
    "REV_AT_EPOCH": 4768,
    "BSTAR": 0.00003695,
    "MEAN_MOTION_DOT": 3.8e-7,
    "MEAN_MOTION_DDOT": 0
   }
  },
  {
   "norad": 64877,
   "name": "IONOSFERA-M 4",
   "intl": "2025-155B",
   "group": "resource",
   "gcat": {
    "class": "C",
    "category": "SCI",
    "owner": "VNIIEMI",
    "state": "RU"
   },
   "omm": {
    "OBJECT_NAME": "IONOSFERA-M 4",
    "OBJECT_ID": "2025-155B",
    "EPOCH": "2026-06-26T03:35:27.586176",
    "MEAN_MOTION": 14.21490255,
    "ECCENTRICITY": 0.0001365,
    "INCLINATION": 98.6026,
    "RA_OF_ASC_NODE": 138.7464,
    "ARG_OF_PERICENTER": 116.4122,
    "MEAN_ANOMALY": 243.7196,
    "EPHEMERIS_TYPE": 0,
    "CLASSIFICATION_TYPE": "U",
    "NORAD_CAT_ID": 64877,
    "ELEMENT_SET_NO": 999,
    "REV_AT_EPOCH": 4767,
    "BSTAR": 0.000040197,
    "MEAN_MOTION_DOT": 4.5e-7,
    "MEAN_MOTION_DDOT": 0
   }
  },
  {
   "norad": 28649,
   "name": "IRS-P5 (CARTOSAT-1)",
   "intl": "2005-017A",
   "group": "resource",
   "gcat": {
    "class": null,
    "category": null,
    "owner": null,
    "state": null
   },
   "omm": {
    "OBJECT_NAME": "IRS-P5 (CARTOSAT-1)",
    "OBJECT_ID": "2005-017A",
    "EPOCH": "2026-06-26T00:05:17.406816",
    "MEAN_MOTION": 14.91070554,
    "ECCENTRICITY": 0.0002366,
    "INCLINATION": 97.5305,
    "RA_OF_ASC_NODE": 199.6682,
    "ARG_OF_PERICENTER": 69.0595,
    "MEAN_ANOMALY": 291.0877,
    "EPHEMERIS_TYPE": 0,
    "CLASSIFICATION_TYPE": "U",
    "NORAD_CAT_ID": 28649,
    "ELEMENT_SET_NO": 999,
    "REV_AT_EPOCH": 14513,
    "BSTAR": 0.00014935,
    "MEAN_MOTION_DOT": 0.00001427,
    "MEAN_MOTION_DDOT": 0
   }
  },
  {
   "norad": 41240,
   "name": "JASON-3",
   "intl": "2016-002A",
   "group": "resource",
   "gcat": {
    "class": "C",
    "category": "SCI/MET",
    "owner": "CNES/NOAA",
    "state": "F"
   },
   "omm": {
    "OBJECT_NAME": "JASON-3",
    "OBJECT_ID": "2016-002A",
    "EPOCH": "2026-06-26T00:17:55.355136",
    "MEAN_MOTION": 12.87556148,
    "ECCENTRICITY": 0.0008418,
    "INCLINATION": 66.0414,
    "RA_OF_ASC_NODE": 107.2818,
    "ARG_OF_PERICENTER": 272.3355,
    "MEAN_ANOMALY": 87.67,
    "EPHEMERIS_TYPE": 0,
    "CLASSIFICATION_TYPE": "U",
    "NORAD_CAT_ID": 41240,
    "ELEMENT_SET_NO": 999,
    "REV_AT_EPOCH": 48838,
    "BSTAR": -0.000053183,
    "MEAN_MOTION_DOT": -7.6e-7,
    "MEAN_MOTION_DDOT": 0
   }
  },
  {
   "norad": 39731,
   "name": "KAZEOSAT 1",
   "intl": "2014-024A",
   "group": "resource",
   "gcat": {
    "class": "C",
    "category": "IMG",
    "owner": "KAZK",
    "state": "KZ"
   },
   "omm": {
    "OBJECT_NAME": "KAZEOSAT 1",
    "OBJECT_ID": "2014-024A",
    "EPOCH": "2026-06-26T04:19:51.253248",
    "MEAN_MOTION": 14.42082983,
    "ECCENTRICITY": 0.0001219,
    "INCLINATION": 98.3206,
    "RA_OF_ASC_NODE": 249.4041,
    "ARG_OF_PERICENTER": 75.6919,
    "MEAN_ANOMALY": 284.4406,
    "EPHEMERIS_TYPE": 0,
    "CLASSIFICATION_TYPE": "U",
    "NORAD_CAT_ID": 39731,
    "ELEMENT_SET_NO": 999,
    "REV_AT_EPOCH": 63985,
    "BSTAR": 0.000042151,
    "MEAN_MOTION_DOT": 9.6e-7,
    "MEAN_MOTION_DDOT": 0
   }
  },
  {
   "norad": 40010,
   "name": "KAZEOSAT 2",
   "intl": "2014-033A",
   "group": "resource",
   "gcat": {
    "class": "C",
    "category": "IMG",
    "owner": "KAZK",
    "state": "KZ"
   },
   "omm": {
    "OBJECT_NAME": "KAZEOSAT 2",
    "OBJECT_ID": "2014-033A",
    "EPOCH": "2026-06-26T04:32:03.723072",
    "MEAN_MOTION": 14.85481816,
    "ECCENTRICITY": 0.0007147,
    "INCLINATION": 97.5409,
    "RA_OF_ASC_NODE": 16.3254,
    "ARG_OF_PERICENTER": 295.9935,
    "MEAN_ANOMALY": 64.0544,
    "EPHEMERIS_TYPE": 0,
    "CLASSIFICATION_TYPE": "U",
    "NORAD_CAT_ID": 40010,
    "ELEMENT_SET_NO": 999,
    "REV_AT_EPOCH": 65029,
    "BSTAR": 0.00014901,
    "MEAN_MOTION_DOT": 0.00001236,
    "MEAN_MOTION_DDOT": 0
   }
  },
  {
   "norad": 43783,
   "name": "KAZSTSAT",
   "intl": "2018-099AB",
   "group": "resource",
   "gcat": {
    "class": "B",
    "category": "IMG",
    "owner": "GHALAM",
    "state": "KZ"
   },
   "omm": {
    "OBJECT_NAME": "KAZSTSAT",
    "OBJECT_ID": "2018-099AB",
    "EPOCH": "2026-06-25T15:17:06.406080",
    "MEAN_MOTION": 14.99894182,
    "ECCENTRICITY": 0.0008589,
    "INCLINATION": 97.4285,
    "RA_OF_ASC_NODE": 208.1817,
    "ARG_OF_PERICENTER": 46.7589,
    "MEAN_ANOMALY": 313.4351,
    "EPHEMERIS_TYPE": 0,
    "CLASSIFICATION_TYPE": "U",
    "NORAD_CAT_ID": 43783,
    "ELEMENT_SET_NO": 999,
    "REV_AT_EPOCH": 41257,
    "BSTAR": 0.00015753,
    "MEAN_MOTION_DOT": 0.00001899,
    "MEAN_MOTION_DDOT": 0
   }
  }
 ]
}
